[{"OBJECT_NAME":"STARLINK-30780","OBJECT_ID":"2023-162Y","EPOCH":"2026-01-30T20:18:13.926528","MEAN_MOTION":15.02536264,"ECCENTRICITY":6.803e-5,"INCLINATION":43.001,"RA_OF_ASC_NODE":339.0228,"ARG_OF_PERICENTER":264.2334,"MEAN_ANOMALY":95.8431,"EPHEMERIS_TYPE":0,"CLASSIFICATION_TYPE":"U","NORAD_CAT_ID":58140,"ELEMENT_SET_NO":999,"REV_AT_EPOCH":12660,"BSTAR":-4.819848e-5,"MEAN_MOTION_DOT":-8.54e-6,"MEAN_MOTION_DDOT":0},{"OBJECT_NAME":"STARLINK-30802","OBJECT_ID":"2023-166A","EPOCH":"2026-01-30T17:36:47.568096","MEAN_MOTION":15.30187761,"ECCENTRICITY":0.00013051,"INCLINATION":53.161,"RA_OF_ASC_NODE":36.2132,"ARG_OF_PERICENTER":96.7289,"MEAN_ANOMALY":263.386,"EPHEMERIS_TYPE":0,"CLASSIFICATION_TYPE":"U","NORAD_CAT_ID":58150,"ELEMENT_SET_NO":999,"REV_AT_EPOCH":12736,"BSTAR":3.975772e-6,"MEAN_MOTION_DOT":-2.41e-6,"MEAN_MOTION_DDOT":0},{"OBJECT_NAME":"STARLINK-30834","OBJECT_ID":"2023-166B","EPOCH":"2026-01-30T09:52:32.747232","MEAN_MOTION":15.30221682,"ECCENTRICITY":0.00017327,"INCLINATION":53.162,"RA_OF_ASC_NODE":37.5474,"ARG_OF_PERICENTER":138.3387,"MEAN_ANOMALY":221.7746,"EPHEMERIS_TYPE":0,"CLASSIFICATION_TYPE":"U","NORAD_CAT_ID":58151,"ELEMENT_SET_NO":999,"REV_AT_EPOCH":12731,"BSTAR":0.001140575,"MEAN_MOTION_DOT":0.00033597,"MEAN_MOTION_DDOT":0},{"OBJECT_NAME":"STARLINK-30833","OBJECT_ID":"2023-166C","EPOCH":"2026-01-30T09:43:28.970688","MEAN_MOTION":15.30192802,"ECCENTRICITY":0.00014056,"INCLINATION":53.1621,"RA_OF_ASC_NODE":37.7172,"ARG_OF_PERICENTER":85.9529,"MEAN_ANOMALY":274.1633,"EPHEMERIS_TYPE":0,"CLASSIFICATION_TYPE":"U","NORAD_CAT_ID":58152,"ELEMENT_SET_NO":999,"REV_AT_EPOCH":12731,"BSTAR":1.838019e-5,"MEAN_MOTION_DOT":1.85e-6,"MEAN_MOTION_DDOT":0},{"OBJECT_NAME":"STARLINK-30831","OBJECT_ID":"2023-166D","EPOCH":"2026-01-30T17:09:26.643744","MEAN_MOTION":15.30191682,"ECCENTRICITY":0.00013736,"INCLINATION":53.1607,"RA_OF_ASC_NODE":36.1125,"ARG_OF_PERICENTER":97.3819,"MEAN_ANOMALY":262.7338,"EPHEMERIS_TYPE":0,"CLASSIFICATION_TYPE":"U","NORAD_CAT_ID":58153,"ELEMENT_SET_NO":999,"REV_AT_EPOCH":12736,"BSTAR":3.67328e-6,"MEAN_MOTION_DOT":-2.5e-6,"MEAN_MOTION_DDOT":0},{"OBJECT_NAME":"STARLINK-30797","OBJECT_ID":"2023-166E","EPOCH":"2026-01-31T00:03:37.581984","MEAN_MOTION":15.30152221,"ECCENTRICITY":0.00049936,"INCLINATION":53.1606,"RA_OF_ASC_NODE":34.837,"ARG_OF_PERICENTER":309.4492,"MEAN_ANOMALY":50.6067,"EPHEMERIS_TYPE":0,"CLASSIFICATION_TYPE":"U","NORAD_CAT_ID":58154,"ELEMENT_SET_NO":999,"REV_AT_EPOCH":12725,"BSTAR":-0.00021913118,"MEAN_MOTION_DOT":-6.838e-5,"MEAN_MOTION_DDOT":0},{"OBJECT_NAME":"STARLINK-30804","OBJECT_ID":"2023-166F","EPOCH":"2026-01-30T17:24:38.333088","MEAN_MOTION":15.30188878,"ECCENTRICITY":0.00013492,"INCLINATION":53.161,"RA_OF_ASC_NODE":36.1728,"ARG_OF_PERICENTER":98.2047,"MEAN_ANOMALY":261.9106,"EPHEMERIS_TYPE":0,"CLASSIFICATION_TYPE":"U","NORAD_CAT_ID":58155,"ELEMENT_SET_NO":999,"REV_AT_EPOCH":12736,"BSTAR":3.2758e-8,"MEAN_MOTION_DOT":-3.58e-6,"MEAN_MOTION_DDOT":0},{"OBJECT_NAME":"STARLINK-30784","OBJECT_ID":"2023-166G","EPOCH":"2026-01-30T09:48:02.720448","MEAN_MOTION":15.30189674,"ECCENTRICITY":0.00014675,"INCLINATION":53.1613,"RA_OF_ASC_NODE":37.7398,"ARG_OF_PERICENTER":89.6502,"MEAN_ANOMALY":270.4667,"EPHEMERIS_TYPE":0,"CLASSIFICATION_TYPE":"U","NORAD_CAT_ID":58156,"ELEMENT_SET_NO":999,"REV_AT_EPOCH":12716,"BSTAR":1.9437094e-5,"MEAN_MOTION_DOT":2.16e-6,"MEAN_MOTION_DDOT":0},{"OBJECT_NAME":"STARLINK-30803","OBJECT_ID":"2023-166H","EPOCH":"2026-01-30T23:21:04.245120","MEAN_MOTION":15.30196736,"ECCENTRICITY":8.345e-5,"INCLINATION":53.1617,"RA_OF_ASC_NODE":34.862,"ARG_OF_PERICENTER":103.4205,"MEAN_ANOMALY":256.6889,"EPHEMERIS_TYPE":0,"CLASSIFICATION_TYPE":"U","NORAD_CAT_ID":58157,"ELEMENT_SET_NO":999,"REV_AT_EPOCH":12725,"BSTAR":2.7915772e-5,"MEAN_MOTION_DOT":4.68e-6,"MEAN_MOTION_DDOT":0},{"OBJECT_NAME":"STARLINK-30829","OBJECT_ID":"2023-166J","EPOCH":"2026-01-30T17:29:12.554592","MEAN_MOTION":15.30178572,"ECCENTRICITY":0.00015216,"INCLINATION":53.1612,"RA_OF_ASC_NODE":36.192,"ARG_OF_PERICENTER":97.337,"MEAN_ANOMALY":262.7804,"EPHEMERIS_TYPE":0,"CLASSIFICATION_TYPE":"U","NORAD_CAT_ID":58158,"ELEMENT_SET_NO":999,"REV_AT_EPOCH":12736,"BSTAR":-4.2120829e-5,"MEAN_MOTION_DOT":-1.606e-5,"MEAN_MOTION_DDOT":0},{"OBJECT_NAME":"STARLINK-30788","OBJECT_ID":"2023-166K","EPOCH":"2026-01-30T23:36:15.959520","MEAN_MOTION":15.30204313,"ECCENTRICITY":0.00015489,"INCLINATION":53.1617,"RA_OF_ASC_NODE":34.9412,"ARG_OF_PERICENTER":95.3357,"MEAN_ANOMALY":264.782,"EPHEMERIS_TYPE":0,"CLASSIFICATION_TYPE":"U","NORAD_CAT_ID":58159,"ELEMENT_SET_NO":999,"REV_AT_EPOCH":12725,"BSTAR":0.00012009122,"MEAN_MOTION_DOT":3.199e-5,"MEAN_MOTION_DDOT":0},{"OBJECT_NAME":"STARLINK-30779","OBJECT_ID":"2023-166L","EPOCH":"2026-01-30T17:14:00.185280","MEAN_MOTION":15.30191714,"ECCENTRICITY":0.00015755,"INCLINATION":53.1623,"RA_OF_ASC_NODE":36.1271,"ARG_OF_PERICENTER":85.9258,"MEAN_ANOMALY":274.1923,"EPHEMERIS_TYPE":0,"CLASSIFICATION_TYPE":"U","NORAD_CAT_ID":58160,"ELEMENT_SET_NO":999,"REV_AT_EPOCH":12736,"BSTAR":2.938134e-6,"MEAN_MOTION_DOT":-2.72e-6,"MEAN_MOTION_DDOT":0},{"OBJECT_NAME":"STARLINK-30773","OBJECT_ID":"2023-166M","EPOCH":"2026-01-30T16:51:11.012256","MEAN_MOTION":15.30206995,"ECCENTRICITY":0.00018271,"INCLINATION":53.1613,"RA_OF_ASC_NODE":36.0107,"ARG_OF_PERICENTER":70.5898,"MEAN_ANOMALY":289.53,"EPHEMERIS_TYPE":0,"CLASSIFICATION_TYPE":"U","NORAD_CAT_ID":58161,"ELEMENT_SET_NO":999,"REV_AT_EPOCH":12736,"BSTAR":6.6608681e-5,"MEAN_MOTION_DOT":1.614e-5,"MEAN_MOTION_DDOT":0},{"OBJECT_NAME":"STARLINK-30816","OBJECT_ID":"2023-166N","EPOCH":"2026-01-30T10:30:25.854336","MEAN_MOTION":15.30200082,"ECCENTRICITY":0.00014438,"INCLINATION":53.162,"RA_OF_ASC_NODE":37.2265,"ARG_OF_PERICENTER":87.4062,"MEAN_ANOMALY":272.7104,"EPHEMERIS_TYPE":0,"CLASSIFICATION_TYPE":"U","NORAD_CAT_ID":58162,"ELEMENT_SET_NO":999,"REV_AT_EPOCH":12732,"BSTAR":2.2861941e-5,"MEAN_MOTION_DOT":3.18e-6,"MEAN_MOTION_DDOT":0},{"OBJECT_NAME":"STARLINK-30763","OBJECT_ID":"2023-166P","EPOCH":"2026-01-30T09:06:15.750144","MEAN_MOTION":15.3019587,"ECCENTRICITY":0.000133,"INCLINATION":53.1613,"RA_OF_ASC_NODE":24.9884,"ARG_OF_PERICENTER":96.472,"MEAN_ANOMALY":263.6432,"EPHEMERIS_TYPE":0,"CLASSIFICATION_TYPE":"U","NORAD_CAT_ID":58163,"ELEMENT_SET_NO":999,"REV_AT_EPOCH":12748,"BSTAR":4.542425e-5,"MEAN_MOTION_DOT":9.86e-6,"MEAN_MOTION_DDOT":0},{"OBJECT_NAME":"STARLINK-30815","OBJECT_ID":"2023-166Q","EPOCH":"2026-01-30T06:01:57.167040","MEAN_MOTION":15.3019327,"ECCENTRICITY":0.0001345,"INCLINATION":53.1612,"RA_OF_ASC_NODE":38.1973,"ARG_OF_PERICENTER":108.9502,"MEAN_ANOMALY":251.1645,"EPHEMERIS_TYPE":0,"CLASSIFICATION_TYPE":"U","NORAD_CAT_ID":58164,"ELEMENT_SET_NO":999,"REV_AT_EPOCH":12729,"BSTAR":-8.7803e-6,"MEAN_MOTION_DOT":-6.19e-6,"MEAN_MOTION_DDOT":0}]
