STARLINK-30780          
1 58140U 23162Y   26030.84599452 -.00000854  00000+0 -48198-4 0  9991
2 58140  43.0010 339.0228 0000680 264.2334  95.8431 15.02536264126602
STARLINK-30802          
1 58150U 23166A   26030.73388389 -.00000241  00000+0  39758-5 0  9991
2 58150  53.1610  36.2132 0001305  96.7289 263.3860 15.30187761127360
STARLINK-30834          
1 58151U 23166B   26030.41149013  .00033597  00000+0  11406-2 0  9992
2 58151  53.1620  37.5474 0001732 138.3387 221.7746 15.30221682127318
STARLINK-30833          
1 58152U 23166C   26030.40519642  .00000185  00000+0  18380-4 0  9998
2 58152  53.1621  37.7172 0001405  85.9529 274.1633 15.30192802127317
STARLINK-30831          
1 58153U 23166D   26030.71489171 -.00000250  00000+0  36733-5 0  9993
2 58153  53.1607  36.1125 0001373  97.3819 262.7338 15.30191682127361
STARLINK-30797          
1 58154U 23166E   26031.00251831 -.00006838  00000+0 -21913-3 0  9998
2 58154  53.1606  34.8370 0004993 309.4492  50.6067 15.30152221127250
STARLINK-30804          
1 58155U 23166F   26030.72544367 -.00000358  00000+0  32758-7 0  9999
2 58155  53.1610  36.1728 0001349  98.2047 261.9106 15.30188878127369
STARLINK-30784          
1 58156U 23166G   26030.40836482  .00000216  00000+0  19437-4 0  9995
2 58156  53.1613  37.7398 0001467  89.6502 270.4667 15.30189674127164
STARLINK-30803          
1 58157U 23166H   26030.97296580  .00000468  00000+0  27916-4 0  9997
2 58157  53.1617  34.8620 0000834 103.4205 256.6889 15.30196736127256
STARLINK-30829          
1 58158U 23166J   26030.72861753 -.00001606  00000+0 -42121-4 0  9993
2 58158  53.1612  36.1920 0001521  97.3370 262.7804 15.30178572127363
STARLINK-30788          
1 58159U 23166K   26030.98351805  .00003199  00000+0  12009-3 0  9992
2 58159  53.1617  34.9412 0001548  95.3357 264.7820 15.30204313127254
STARLINK-30779          
1 58160U 23166L   26030.71805770 -.00000272  00000+0  29381-5 0  9993
2 58160  53.1623  36.1271 0001575  85.9258 274.1923 15.30191714127366
STARLINK-30773          
1 58161U 23166M   26030.70221079  .00001614  00000+0  66609-4 0  9990
2 58161  53.1613  36.0107 0001827  70.5898 289.5300 15.30206995127360
STARLINK-30816          
1 58162U 23166N   26030.43779924  .00000318  00000+0  22862-4 0  9991
2 58162  53.1620  37.2265 0001443  87.4062 272.7104 15.30200082127324
STARLINK-30763          
1 58163U 23166P   26030.37934896  .00000986  00000+0  45424-4 0  9996
2 58163  53.1613  24.9884 0001330  96.4720 263.6432 15.30195870127481
STARLINK-30815          
1 58164U 23166Q   26030.25135610 -.00000619  00000+0 -87803-5 0  9994
2 58164  53.1612  38.1973 0001345 108.9502 251.1645 15.30193270127299
